[{"CCSDS_OMM_VERS":"2.0","COMMENT":"GENERATED VIA SPACE-TRACK.ORG API","CREATION_DATE":"2021-10-03T04:23:41","ORIGINATOR":"18 SPCS","OBJECT_NAME":"TBA - TO BE ASSIGNED","OBJECT_ID":"","CENTER_NAME":"EARTH","REF_FRAME":"TEME","TIME_SYSTEM":"UTC","MEAN_ELEMENT_THEORY":"SGP4","EPOCH":"2021-10-02T10:08:47.576832","MEAN_MOTION":"12.25782319","ECCENTRICITY":"0.01345304","INCLINATION":"74.0278","RA_OF_ASC_NODE":"329.7755","ARG_OF_PERICENTER":"199.7393","MEAN_ANOMALY":"159.8409","EPHEMERIS_TYPE":"0","CLASSIFICATION_TYPE":"U","NORAD_CAT_ID":"270088","ELEMENT_SET_NO":"999","REV_AT_EPOCH":"8281","BSTAR":"0.00010189559000","MEAN_MOTION_DOT":"-0.00000003","MEAN_MOTION_DDOT":"0.0000000000000","SEMIMAJOR_AXIS":"7945.592","PERIOD":"117.476","APOAPSIS":"1674.350","PERIAPSIS":"1460.565","OBJECT_TYPE":"TBA","RCS_SIZE":null,"COUNTRY_CODE":null,"LAUNCH_DATE":null,"SITE":null,"DECAY_DATE":null,"FILE":"3141323","GP_ID":"186041787","TLE_LINE0":"0 TBA - TO BE ASSIGNED","TLE_LINE1":"1 T0088U          21275.42277288 -.00000003  00000-0  10190-3 0  9991","TLE_LINE2":"2 T0088  74.0278 329.7755 0134530 199.7393 159.8409 12.25782319 82816"},{"CCSDS_OMM_VERS":"2.0","COMMENT":"GENERATED VIA SPACE-TRACK.ORG API","CREATION_DATE":"2021-10-03T04:23:41","ORIGINATOR":"18 SPCS","OBJECT_NAME":"TBA - TO BE ASSIGNED","OBJECT_ID":"","CENTER_NAME":"EARTH","REF_FRAME":"TEME","TIME_SYSTEM":"UTC","MEAN_ELEMENT_THEORY":"SGP4","EPOCH":"2021-10-02T11:27:50.179104","MEAN_MOTION":"12.72570110","ECCENTRICITY":"0.07581506","INCLINATION":"72.8185","RA_OF_ASC_NODE":"351.9934","ARG_OF_PERICENTER":"104.0222","MEAN_ANOMALY":"264.6257","EPHEMERIS_TYPE":"0","CLASSIFICATION_TYPE":"U","NORAD_CAT_ID":"270087","ELEMENT_SET_NO":"999","REV_AT_EPOCH":"8602","BSTAR":"-0.00203832900000","MEAN_MOTION_DOT":"-0.00001384","MEAN_MOTION_DDOT":"0.0000000000000","SEMIMAJOR_AXIS":"7749.625","PERIOD":"113.157","APOAPSIS":"1959.028","PERIAPSIS":"783.952","OBJECT_TYPE":"TBA","RCS_SIZE":null,"COUNTRY_CODE":null,"LAUNCH_DATE":null,"SITE":null,"DECAY_DATE":null,"FILE":"3141323","GP_ID":"186041671","TLE_LINE0":"0 TBA - TO BE ASSIGNED","TLE_LINE1":"1 T0087U          21275.47766411 -.00001384  00000-0 -20383-2 0  9994","TLE_LINE2":"2 T0087  72.8185 351.9934 0758151 104.0222 264.6257 12.72570110 86024"},{"CCSDS_OMM_VERS":"2.0","COMMENT":"GENERATED VIA SPACE-TRACK.ORG API","CREATION_DATE":"2021-10-01T18:05:37","ORIGINATOR":"18 SPCS","OBJECT_NAME":"TBA - TO BE ASSIGNED","OBJECT_ID":"","CENTER_NAME":"EARTH","REF_FRAME":"TEME","TIME_SYSTEM":"UTC","MEAN_ELEMENT_THEORY":"SGP4","EPOCH":"2021-10-01T10:42:38.240352","MEAN_MOTION":"14.40112337","ECCENTRICITY":"0.00527375","INCLINATION":"86.3734","RA_OF_ASC_NODE":"347.3052","ARG_OF_PERICENTER":"217.7243","MEAN_ANOMALY":"142.0255","EPHEMERIS_TYPE":"0","CLASSIFICATION_TYPE":"U","NORAD_CAT_ID":"270086","ELEMENT_SET_NO":"999","REV_AT_EPOCH":"9716","BSTAR":"0.00004301137800","MEAN_MOTION_DOT":"0.00000158","MEAN_MOTION_DDOT":"0.0000000000000","SEMIMAJOR_AXIS":"7136.264","PERIOD":"99.992","APOAPSIS":"795.764","PERIAPSIS":"720.494","OBJECT_TYPE":"TBA","RCS_SIZE":null,"COUNTRY_CODE":null,"LAUNCH_DATE":null,"SITE":null,"DECAY_DATE":null,"FILE":"3138865","GP_ID":"185915949","TLE_LINE0":"0 TBA - TO BE ASSIGNED","TLE_LINE1":"1 T0086U          21274.44627593  .00000158  00000-0  43011-4 0  9997","TLE_LINE2":"2 T0086  86.3734 347.3052 0052738 217.7243 142.0255 14.40112337 97160"},{"CCSDS_OMM_VERS":"2.0","COMMENT":"GENERATED VIA SPACE-TRACK.ORG API","CREATION_DATE":"2021-10-01T18:05:37","ORIGINATOR":"18 SPCS","OBJECT_NAME":"TBA - TO BE ASSIGNED","OBJECT_ID":"","CENTER_NAME":"EARTH","REF_FRAME":"TEME","TIME_SYSTEM":"UTC","MEAN_ELEMENT_THEORY":"SGP4","EPOCH":"2021-10-01T04:41:03.958944","MEAN_MOTION":"12.74355430","ECCENTRICITY":"0.06821567","INCLINATION":"99.2855","RA_OF_ASC_NODE":"66.9433","ARG_OF_PERICENTER":"153.2294","MEAN_ANOMALY":"210.5779","EPHEMERIS_TYPE":"0","CLASSIFICATION_TYPE":"U","NORAD_CAT_ID":"270085","ELEMENT_SET_NO":"999","REV_AT_EPOCH":"8573","BSTAR":"0.00106166700000","MEAN_MOTION_DOT":"0.00000554","MEAN_MOTION_DDOT":"0.0000000000000","SEMIMAJOR_AXIS":"7742.386","PERIOD":"112.998","APOAPSIS":"1892.403","PERIAPSIS":"836.098","OBJECT_TYPE":"TBA","RCS_SIZE":null,"COUNTRY_CODE":null,"LAUNCH_DATE":null,"SITE":null,"DECAY_DATE":null,"FILE":"3138865","GP_ID":"185915775","TLE_LINE0":"0 TBA - TO BE ASSIGNED","TLE_LINE1":"1 T0085U          21274.19518471  .00000554  00000-0  10617-2 0  9996","TLE_LINE2":"2 T0085  99.2855  66.9433 0682157 153.2294 210.5779 12.74355430 85737"},{"CCSDS_OMM_VERS":"2.0","COMMENT":"GENERATED VIA SPACE-TRACK.ORG API","CREATION_DATE":"2021-10-02T03:59:35","ORIGINATOR":"18 SPCS","OBJECT_NAME":"TBA - TO BE ASSIGNED","OBJECT_ID":"","CENTER_NAME":"EARTH","REF_FRAME":"TEME","TIME_SYSTEM":"UTC","MEAN_ELEMENT_THEORY":"SGP4","EPOCH":"2021-10-01T19:40:38.225568","MEAN_MOTION":"13.52961309","ECCENTRICITY":"0.04981181","INCLINATION":"72.8792","RA_OF_ASC_NODE":"321.5188","ARG_OF_PERICENTER":"305.5296","MEAN_ANOMALY":"50.0305","EPHEMERIS_TYPE":"0","CLASSIFICATION_TYPE":"U","NORAD_CAT_ID":"270084","ELEMENT_SET_NO":"999","REV_AT_EPOCH":"9115","BSTAR":"0.00198367720000","MEAN_MOTION_DOT":"0.00002883","MEAN_MOTION_DDOT":"0.0000000000000","SEMIMAJOR_AXIS":"7439.520","PERIOD":"106.433","APOAPSIS":"1431.961","PERIAPSIS":"690.809","OBJECT_TYPE":"TBA","RCS_SIZE":null,"COUNTRY_CODE":null,"LAUNCH_DATE":null,"SITE":null,"DECAY_DATE":null,"FILE":"3139397","GP_ID":"185950670","TLE_LINE0":"0 TBA - TO BE ASSIGNED","TLE_LINE1":"1 T0084U          21274.81988687  .00002883  00000-0  19837-2 0  9994","TLE_LINE2":"2 T0084  72.8792 321.5188 0498118 305.5296  50.0305 13.52961309 91156"},{"CCSDS_OMM_VERS":"2.0","COMMENT":"GENERATED VIA SPACE-TRACK.ORG API","CREATION_DATE":"2021-09-30T20:16:47","ORIGINATOR":"18 SPCS","OBJECT_NAME":"TBA - TO BE ASSIGNED","OBJECT_ID":"","CENTER_NAME":"EARTH","REF_FRAME":"TEME","TIME_SYSTEM":"UTC","MEAN_ELEMENT_THEORY":"SGP4","EPOCH":"2021-09-29T22:21:50.490432","MEAN_MOTION":"14.58208554","ECCENTRICITY":"0.00541258","INCLINATION":"74.0463","RA_OF_ASC_NODE":"342.0790","ARG_OF_PERICENTER":"216.3530","MEAN_ANOMALY":"143.3954","EPHEMERIS_TYPE":"0","CLASSIFICATION_TYPE":"U","NORAD_CAT_ID":"270083","ELEMENT_SET_NO":"999","REV_AT_EPOCH":"9807","BSTAR":"0.00030093626000","MEAN_MOTION_DOT":"0.00001386","MEAN_MOTION_DDOT":"0.0000000000000","SEMIMAJOR_AXIS":"7077.101","PERIOD":"98.751","APOAPSIS":"737.272","PERIAPSIS":"660.661","OBJECT_TYPE":"TBA","RCS_SIZE":null,"COUNTRY_CODE":null,"LAUNCH_DATE":null,"SITE":null,"DECAY_DATE":null,"FILE":"3136969","GP_ID":"185850407","TLE_LINE0":"0 TBA - TO BE ASSIGNED","TLE_LINE1":"1 T0083U          21272.93183438  .00001386  00000-0  30094-3 0  9991","TLE_LINE2":"2 T0083  74.0463 342.0790 0054126 216.3530 143.3954 14.58208554 98075"},{"CCSDS_OMM_VERS":"2.0","COMMENT":"GENERATED VIA SPACE-TRACK.ORG API","CREATION_DATE":"2021-10-03T04:23:41","ORIGINATOR":"18 SPCS","OBJECT_NAME":"TBA - TO BE ASSIGNED","OBJECT_ID":"","CENTER_NAME":"EARTH","REF_FRAME":"TEME","TIME_SYSTEM":"UTC","MEAN_ELEMENT_THEORY":"SGP4","EPOCH":"2021-10-02T05:31:16.588704","MEAN_MOTION":"13.89995259","ECCENTRICITY":"0.02401598","INCLINATION":"74.0161","RA_OF_ASC_NODE":"107.1217","ARG_OF_PERICENTER":"249.1229","MEAN_ANOMALY":"108.4037","EPHEMERIS_TYPE":"0","CLASSIFICATION_TYPE":"U","NORAD_CAT_ID":"270082","ELEMENT_SET_NO":"999","REV_AT_EPOCH":"9383","BSTAR":"0.00038578185000","MEAN_MOTION_DOT":"0.00000575","MEAN_MOTION_DDOT":"0.0000000000000","SEMIMAJOR_AXIS":"7306.784","PERIOD":"103.597","APOAPSIS":"1104.129","PERIAPSIS":"753.170","OBJECT_TYPE":"TBA","RCS_SIZE":null,"COUNTRY_CODE":null,"LAUNCH_DATE":null,"SITE":null,"DECAY_DATE":null,"FILE":"3141323","GP_ID":"186041613","TLE_LINE0":"0 TBA - TO BE ASSIGNED","TLE_LINE1":"1 T0082U          21275.23005311  .00000575  00000-0  38578-3 0  9993","TLE_LINE2":"2 T0082  74.0161 107.1217 0240160 249.1229 108.4037 13.89995259 93838"},{"CCSDS_OMM_VERS":"2.0","COMMENT":"GENERATED VIA SPACE-TRACK.ORG API","CREATION_DATE":"2021-10-03T04:23:41","ORIGINATOR":"18 SPCS","OBJECT_NAME":"TBA - TO BE ASSIGNED","OBJECT_ID":"","CENTER_NAME":"EARTH","REF_FRAME":"TEME","TIME_SYSTEM":"UTC","MEAN_ELEMENT_THEORY":"SGP4","EPOCH":"2021-10-02T12:20:30.027552","MEAN_MOTION":"12.95437066","ECCENTRICITY":"0.00358612","INCLINATION":"90.2936","RA_OF_ASC_NODE":"308.5224","ARG_OF_PERICENTER":"310.6962","MEAN_ANOMALY":"49.1044","EPHEMERIS_TYPE":"0","CLASSIFICATION_TYPE":"U","NORAD_CAT_ID":"270081","ELEMENT_SET_NO":"999","REV_AT_EPOCH":"8738","BSTAR":"0.00011171635000","MEAN_MOTION_DOT":"0.00000039","MEAN_MOTION_DDOT":"0.0000000000000","SEMIMAJOR_AXIS":"7658.158","PERIOD":"111.159","APOAPSIS":"1307.486","PERIAPSIS":"1252.559","OBJECT_TYPE":"TBA","RCS_SIZE":null,"COUNTRY_CODE":null,"LAUNCH_DATE":null,"SITE":null,"DECAY_DATE":null,"FILE":"3141323","GP_ID":"186041555","TLE_LINE0":"0 TBA - TO BE ASSIGNED","TLE_LINE1":"1 T0081U          21275.51423643  .00000039  00000-0  11172-3 0  9991","TLE_LINE2":"2 T0081  90.2936 308.5224 0035861 310.6962  49.1044 12.95437066 87385"}]